NORAD_CAT_ID,OBJECT_NAME,OBJECT_TYPE,EPOCH,MEAN_MOTION,ECCENTRICITY,INCLINATION,RA_OF_ASC_NODE,ARG_OF_PERICENTER,MEAN_ANOMALY,BSTAR,MEAN_MOTION_DOT,MEAN_MOTION_DDOT,TLE_LINE0,TLE_LINE1,TLE_LINE2,SEMIMAJOR_AXIS,PERIOD,APOGEE,PERIGEE,DECAYED
52276.0,STARLINK-3778,PAYLOAD,2022-09-18 20:04:30,15.08839568,0.0001526,53.2208,40.7387,56.1019,304.0119,0.0001964,2.839e-05,0.0,0 STARLINK-3778,1 52276U 22041R   22261.83646302  .00002839  00000-0  19640-3 0  9991,2 52276  53.2208  40.7387 0001526  56.1019 304.0119 15.08839568 22969,6917.882,95.438,540.802,538.691,0.0
52276.0,STARLINK-3778,PAYLOAD,2022-09-19 11:58:21,15.08843296,0.0001535,53.221,37.7651,57.7527,302.3614,7.7095e-05,9.39e-06,0.0,0 STARLINK-3778,1 52276U 22041R   22262.49886318  .00000939  00000-0  77095-4 0  9995,2 52276  53.2210  37.7651 0001535  57.7527 302.3614 15.08843296 23069,6917.87,95.437,540.797,538.673,0.0
52276.0,STARLINK-3778,PAYLOAD,2022-09-19 18:19:54,15.08844794,0.0001575,53.221,36.5758,56.7515,303.3628,8.0837e-05,9.99e-06,0.0,0 STARLINK-3778,1 52276U 22041R   22262.76382170  .00000999  00000-0  80837-4 0  9996,2 52276  53.2210  36.5758 0001575  56.7515 303.3628 15.08844794 23109,6917.866,95.437,540.82,538.641,0.0
52276.0,STARLINK-3778,PAYLOAD,2022-09-20 08:38:22,15.08839568,0.0001653,53.2212,33.8999,58.963,301.1524,4.8455e-05,4.83e-06,0.0,0 STARLINK-3778,1 52276U 22041R   22263.35998449  .00000483  00000-0  48455-4 0  9992,2 52276  53.2212  33.8999 0001653  58.9630 301.1524 15.08839568 23190,6917.882,95.438,540.89,538.6030000000002,0.0
52276.0,STARLINK-3778,PAYLOAD,2022-09-21 11:39:55,15.0883827,0.0001111,53.2218,28.8397,89.1949,270.9171,4.497399999999999e-05,4.28e-06,0.0,0 STARLINK-3778,1 52276U 22041R   22264.48606193  .00000428  00000-0  44974-4 0  9990,2 52276  53.2218  28.8397 0001111  89.1949 270.9171 15.08838270 24584,6917.886,95.438,540.519,538.982,0.0
52276.0,STARLINK-3778,PAYLOAD,2022-09-21 18:01:29,15.08830747,0.0001539,53.2203,27.6552,46.7603,313.3518,-5.283e-05,-1.128e-05,0.0,0 STARLINK-3778,1 52276U 22041R   22264.75103145 -.00001128  00000-0 -52830-4 0  9999,2 52276  53.2203  27.6552 0001539  46.7603 313.3518 15.08830747 24621,6917.909000000002,95.438,540.8380000000002,538.7090000000002,0.0
52276.0,STARLINK-3778,PAYLOAD,2022-09-22 13:06:06,15.08828438,0.0001337,53.22,24.0866,42.2257,317.8838,0.00016559,2.348e-05,0.0,0 STARLINK-3778,1 52276U 22041R   22265.54591030  .00002348  00000-0  16559-3 0  9991,2 52276  53.2200  24.0866 0001337  42.2257 317.8838 15.08828438 23525,6917.916,95.438,540.706,538.856,0.0
52276.0,STARLINK-3778,PAYLOAD,2022-09-22 17:52:15,15.08842698,0.0001568,53.2206,23.1953,49.7375,310.3754,7.0144e-05,8.29e-06,0.0,0 STARLINK-3778,1 52276U 22041R   22265.74462422  .00000829  00000-0  70144-4 0  9998,2 52276  53.2206  23.1953 0001568  49.7375 310.3754 15.08842698 23559,6917.871999999999,95.437,540.822,538.6519999999998,0.0
52276.0,STARLINK-3778,PAYLOAD,2022-09-23 09:46:07,15.08831803,0.0001613,53.2204,20.2227,50.9187,309.1949,0.00012238,1.66e-05,0.0,0 STARLINK-3778,1 52276U 22041R   22266.40703022  .00001660  00000-0  12238-3 0  9999,2 52276  53.2204  20.2227 0001613  50.9187 309.1949 15.08831803 24879,6917.905,95.438,540.886,538.655,0.0
52276.0,STARLINK-3778,PAYLOAD,2022-09-23 12:56:53,15.08833231,0.0001484,53.2204,19.6278,52.8857,307.2271,0.00012764,1.744e-05,0.0,0 STARLINK-3778,1 52276U 22041R   22266.53950965  .00001744  00000-0  12764-3 0  9990,2 52276  53.2204  19.6278 0001484  52.8857 307.2271 15.08833231 23679,6917.901,95.438,540.793,538.739,0.0
52276.0,STARLINK-3778,PAYLOAD,2022-09-23 17:43:02,15.08835434,0.0001530999999999,53.2203,18.7357,49.2044,310.908,0.000143,1.988e-05,0.0,0 STARLINK-3778,1 52276U 22041R   22266.73822915  .00001988  00000-0  14300-3 0  9993,2 52276  53.2203  18.7357 0001531  49.2044 310.9080 15.08835434 23707,6917.894,95.438,540.818,538.7,0.0
52276.0,STARLINK-3778,PAYLOAD,2022-09-24 12:47:41,15.08835358,0.0001636999999999,53.2209,15.169,51.2363,308.8775,-5.5068e-06,-3.76e-06,0.0,0 STARLINK-3778,1 52276U 22041R   22267.53311749 -.00000376  00000-0 -55068-5 0  9990,2 52276  53.2209  15.1690 0001637  51.2363 308.8775 15.08835358 25049,6917.895,95.438,540.8919999999998,538.627,0.0
52276.0,STARLINK-3778,PAYLOAD,2022-09-24 19:09:14,15.08828179,0.0001756,53.2201,13.9771,48.0946,312.0195,-5.9979e-05,-1.242e-05,0.0,0 STARLINK-3778,1 52276U 22041R   22267.79808472 -.00001242  00000-0 -59979-4 0  9999,2 52276  53.2201  13.9771 0001756  48.0946 312.0195 15.08828179 23864,6917.917,95.438,540.996,538.567,0.0
52276.0,STARLINK-3778,PAYLOAD,2022-09-25 12:38:28,15.08840878,0.0001699999999999,53.2192,10.7069,49.5795,310.5345,6.7034e-05,7.79e-06,0.0,0 STARLINK-3778,1 52276U 22041R   22268.52671656  .00000779  00000-0  67034-4 0  9996,2 52276  53.2192  10.7069 0001700  49.5795 310.5345 15.08840878 23977,6917.878000000002,95.437,540.919,538.567,0.0
52276.0,STARLINK-3778,PAYLOAD,2022-09-25 15:49:14,15.0884392,0.0001751,53.2193,10.1123,49.957,310.1575,0.00010286,1.349e-05,0.0,0 STARLINK-3778,1 52276U 22041R   22268.65919403  .00001349  00000-0  10286-3 0  9995,2 52276  53.2193  10.1123 0001751  49.9570 310.1575 15.08843920 23998,6917.868,95.437,540.945,538.5219999999998,0.0
52276.0,STARLINK-3778,PAYLOAD,2022-09-26 09:18:29,15.08829451,0.0001807,53.219,6.8417,53.2382,306.8775,0.00013158,1.806e-05,0.0,0 STARLINK-3778,1 52276U 22041R   22269.38784298  .00001806  00000-0  13158-3 0  9997,2 52276  53.2190   6.8417 0001807  53.2382 306.8775 15.08829451 25320,6917.913000000001,95.438,541.028,538.528,0.0
52276.0,STARLINK-3778,PAYLOAD,2022-09-26 15:40:03,15.08820331,0.0001795,53.2194,5.6524,52.6987,307.4169,4.1523e-05,3.72e-06,0.0,0 STARLINK-3778,1 52276U 22041R   22269.65281420  .00000372  00000-0  41523-4 0  9991,2 52276  53.2194   5.6524 0001795  52.6987 307.4169 15.08820331 25366,6917.941,95.439,541.047,538.564,0.0
52276.0,STARLINK-3778,PAYLOAD,2022-09-27 12:20:02,15.08848858,0.0001594,53.2204,1.7869,64.2127,295.9029,5.9514e-05,6.59e-06,0.0,0 STARLINK-3778,1 52276U 22041R   22270.51391932  .00000659  00000-0  59514-4 0  9995,2 52276  53.2204   1.7869 0001594  64.2127 295.9029 15.08848858 25493,6917.853,95.437,540.821,538.616,0.0
52276.0,STARLINK-3778,PAYLOAD,2022-09-27 15:30:48,15.08852364,0.0001584,53.2203,1.192,63.2809,296.8345,8.693e-05,1.096e-05,0.0,0 STARLINK-3778,1 52276U 22041R   22270.64639572  .00001096  00000-0  86930-4 0  9992,2 52276  53.2203   1.1920 0001584  63.2809 296.8345 15.08852364 24294,6917.843000000003,95.437,540.803,538.612,0.0
52276.0,STARLINK-3778,PAYLOAD,2022-09-28 12:10:50,15.08833928,0.0001573,53.2194,357.3258,51.2154,308.8979,0.00011473,1.538e-05,0.0,0 STARLINK-3778,1 52276U 22041R   22271.50752586  .00001538  00000-0  11473-3 0  9999,2 52276  53.2194 357.3258 0001573  51.2154 308.8979 15.08833928 24428,6917.899,95.438,540.852,538.6759999999998,0.0
52276.0,STARLINK-3778,PAYLOAD,2022-09-28 15:21:36,15.08834858,0.0001583,53.2194,356.7311,50.8642,309.2491,0.00011811,1.592e-05,0.0,0 STARLINK-3778,1 52276U 22041R   22271.64000585  .00001592  00000-0  11811-3 0  9995,2 52276  53.2194 356.7311 0001583  50.8642 309.2491 15.08834858 24448,6917.896,95.438,540.856,538.6659999999998,0.0
52276.0,STARLINK-3778,PAYLOAD,2022-09-29 12:01:37,15.08844334,0.0001631999999999,53.2189,352.8647,47.992,312.1211,-1.5408e-05,-5.33e-06,0.0,0 STARLINK-3778,1 52276U 22041R   22272.50112439 -.00000533  00000-0 -15408-4 0  9996,2 52276  53.2189 352.8647 0001632  47.9920 312.1211 15.08844334 24579,6917.8669999999975,95.437,540.861,538.6030000000002,0.0
52276.0,STARLINK-3778,PAYLOAD,2022-09-29 15:12:23,15.08842308,0.0001643,53.219,352.2702,48.8017,311.3117,-3.0493e-05,-7.73e-06,0.0,0 STARLINK-3778,1 52276U 22041R   22272.63360568 -.00000773  00000-0 -30493-4 0  9995,2 52276  53.2190 352.2702 0001643  48.8017 311.3117 15.08842308 24593,6917.873000000001,95.437,540.875,538.602,0.0
52276.0,STARLINK-3778,PAYLOAD,2022-09-30 11:52:23,15.08843716,0.000169,53.2187,348.4049,45.1162,314.9967,9.0954e-05,1.16e-05,0.0,0 STARLINK-3778,1 52276U 22041R   22273.49472215  .00001160  00000-0  90954-4 0  9990,2 52276  53.2187 348.4049 0001690  45.1162 314.9967 15.08843716 24724,6917.869000000002,95.437,540.903,538.565,0.0
52276.0,STARLINK-3778,PAYLOAD,2022-09-30 16:38:32,15.08848694,0.0001747,53.219,347.5135,46.2607,313.8529,0.00016037,2.266e-05,0.0,0 STARLINK-3778,1 52276U 22041R   22273.69343708  .00002266  00000-0  16037-3 0  9993,2 52276  53.2190 347.5135 0001747  46.2607 313.8529 15.08848694 24758,6917.854,95.437,540.927,538.51,0.0
52276.0,STARLINK-3778,PAYLOAD,2022-10-01 11:43:10,15.08850279,0.0001831999999999,53.2191,343.9447,48.3379,311.7769,0.00015165,2.127e-05,0.0,0 STARLINK-3778,1 52276U 22041R   22274.48831202  .00002127  00000-0  15165-3 0  9999,2 52276  53.2191 343.9447 0001832  48.3379 311.7769 15.08850279 24877,6917.849,95.437,540.981,538.447,0.0
52276.0,STARLINK-3778,PAYLOAD,2022-10-02 05:12:25,15.08839854,0.0001781999999999,53.2208,340.6798,57.6596,302.4569,1.0338e-05,-1.24e-06,0.0,0 STARLINK-3778,1 52276U 22041R   22275.21696169 -.00000124  00000-0  10338-4 0  9996,2 52276  53.2208 340.6798 0001782  57.6596 302.4569 15.08839854 26207,6917.880999999999,95.438,540.979,538.513,0.0
52276.0,STARLINK-3778,PAYLOAD,2022-10-02 11:33:58,15.0883089,0.0001893,53.2204,339.4865,47.9404,312.1749,-0.00010024,-1.883e-05,0.0,0 STARLINK-3778,1 52276U 22041R   22275.48193180 -.00001883  00000-0 -10024-3 0  9995,2 52276  53.2204 339.4865 0001893  47.9404 312.1749 15.08830890 26240,6917.908,95.438,541.0830000000002,538.464,0.0
52276.0,STARLINK-3778,PAYLOAD,2022-10-02 14:44:45,15.08832076,0.0001849,53.2203,338.8915,47.6416,312.4732,-8.837799999999999e-05,-1.694e-05,0.0,0 STARLINK-3778,1 52276U 22041R   22275.61441015 -.00001694  00000-0 -88378-4 0  9991,2 52276  53.2203 338.8915 0001849  47.6416 312.4732 15.08832076 25049,6917.905,95.438,541.049,538.49,0.0
